{"type": "FeatureCollection", "features": [ {"type": "Feature", "properties": {"norad_id": 30386, "name": "FENGYUN 1C DEB", "group": "fengyun-1c-debris", "lat": 31.986571706221675, "lon": 65.29781711056648, "alt_km": 831.3954190650547, "timestamp": "2025-12-10T05:46:14.098128+00:00", "meta": {"OBJECT_NAME": "FENGYUN 1C DEB", "OBJECT_ID": "1999-025ACZ", "EPOCH": "2025-12-08T16:07:53.853312", "MEAN_MOTION": 13.55555171, "ECCENTRICITY": 0.03035726, "INCLINATION": 98.6906, "RA_OF_ASC_NODE": 238.4321, "ARG_OF_PERICENTER": 166.3977, "MEAN_ANOMALY": 252.7695, "EPHEMERIS_TYPE": 0, "CLASSIFICATION_TYPE": "U", "NORAD_CAT_ID": 30386, "ELEMENT_SET_NO": 999, "REV_AT_EPOCH": 92774, "BSTAR": 0.0022102799, "MEAN_MOTION_DOT": 2.029e-05, "MEAN_MOTION_DDOT": 0}, "tle": {"line1": "1 30386U 99025ACZ 25342.67215108  .00002029  00000+0  22103-2 0  9993", "line2": "2 30386  98.6906 238.4321 0303572 166.3977 252.7695 13.55555171927745"}}, "geometry": {"type": "Point", "coordinates": [65.29781711056648, 31.986571706221675]}}, {"type": "Feature", "properties": {"norad_id": 30387, "name": "FENGYUN 1C DEB", "group": "fengyun-1c-debris", "lat": 72.10377315578602, "lon": -28.76510775669525, "alt_km": 834.3827377945809, "timestamp": "2025-12-10T05:46:14.098138+00:00", "meta": {"OBJECT_NAME": "FENGYUN 1C DEB", "OBJECT_ID": "1999-025ADA", "EPOCH": "2025-12-09T13:09:55.119168", "MEAN_MOTION": 14.15047984, "ECCENTRICITY": 0.0001183, "INCLINATION": 98.6567, "RA_OF_ASC_NODE": 358.7132, "ARG_OF_PERICENTER": 97.8117, "MEAN_ANOMALY": 53.8913, "EPHEMERIS_TYPE": 0, "CLASSIFICATION_TYPE": "U", "NORAD_CAT_ID": 30387, "ELEMENT_SET_NO": 999, "REV_AT_EPOCH": 97279, "BSTAR": 0.00041952, "MEAN_MOTION_DOT": 7.7e-06, "MEAN_MOTION_DDOT": 0}, "tle": {"line1": "1 30387U 99025ADA 25343.54855462  .00000770  00000+0  41952-3 0  9999", "line2": "2 30387  98.6567 358.7132 0001183  97.8117  53.8913 14.15047984972795"}}, "geometry": {"type": "Point", "coordinates": [-28.76510775669525, 72.10377315578602]}}, {"type": "Feature", "properties": {"norad_id": 30388, "name": "FENGYUN 1C DEB", "group": "fengyun-1c-debris", "lat": -55.21741421960422, "lon": 17.559989916504207, "alt_km": 925.1852370747674, "timestamp": "2025-12-10T05:46:14.098148+00:00", "meta": {"OBJECT_NAME": "FENGYUN 1C DEB", "OBJECT_ID": "1999-025ADB", "EPOCH": "2025-12-09T20:42:29.320704", "MEAN_MOTION": 14.19759284, "ECCENTRICITY": 0.0222247, "INCLINATION": 98.5993, "RA_OF_ASC_NODE": 4.6094, "ARG_OF_PERICENTER": 71.0994, "MEAN_ANOMALY": 106.0001, "EPHEMERIS_TYPE": 0, "CLASSIFICATION_TYPE": "U", "NORAD_CAT_ID": 30388, "ELEMENT_SET_NO": 999, "REV_AT_EPOCH": 97391, "BSTAR": 0.00070612, "MEAN_MOTION_DOT": 1.871e-05, "MEAN_MOTION_DDOT": 0}, "tle": {"line1": "1 30388U 99025ADB 25343.86283936  .00001871  00000+0  70612-3 0  9994", "line2": "2 30388  98.5993   4.6094 0222247  71.0994 106.0001 14.19759284973916"}}, "geometry": {"type": "Point", "coordinates": [17.559989916504207, -55.21741421960422]}}, {"type": "Feature", "properties": {"norad_id": 30389, "name": "FENGYUN 1C DEB", "group": "fengyun-1c-debris", "lat": 46.20010361315244, "lon": -105.28123184019779, "alt_km": 741.972658812876, "timestamp": "2025-12-10T05:46:14.098157+00:00", "meta": {"OBJECT_NAME": "FENGYUN 1C DEB", "OBJECT_ID": "1999-025ADC", "EPOCH": "2025-12-09T16:36:06.639264", "MEAN_MOTION": 14.43977648, "ECCENTRICITY": 0.0014047, "INCLINATION": 98.8372, "RA_OF_ASC_NODE": 64.8127, "ARG_OF_PERICENTER": 228.6918, "MEAN_ANOMALY": 293.7896, "EPHEMERIS_TYPE": 0, "CLASSIFICATION_TYPE": "U", "NORAD_CAT_ID": 30389, "ELEMENT_SET_NO": 999, "REV_AT_EPOCH": 97742, "BSTAR": 0.003526, "MEAN_MOTION_DOT": 0.00012033, "MEAN_MOTION_DDOT": 0}, "tle": {"line1": "1 30389U 99025ADC 25343.69174351  .00012033  00000+0  35260-2 0  9997", "line2": "2 30389  98.8372  64.8127 0014047 228.6918 293.7896 14.43977648977428"}}, "geometry": {"type": "Point", "coordinates": [-105.28123184019779, 46.20010361315244]}}, {"type": "Feature", "properties": {"norad_id": 30390, "name": "FENGYUN 1C DEB", "group": "fengyun-1c-debris", "lat": 74.01730275034217, "lon": -79.7508865660208, "alt_km": 767.216682750809, "timestamp": "2025-12-10T05:46:14.098167+00:00", "meta": {"OBJECT_NAME": "FENGYUN 1C DEB", "OBJECT_ID": "1999-025ADD", "EPOCH": "2025-12-09T04:23:34.909152", "MEAN_MOTION": 14.29676745, "ECCENTRICITY": 0.0068203, "INCLINATION": 98.8221, "RA_OF_ASC_NODE": 66.3432, "ARG_OF_PERICENTER": 174.637, "MEAN_ANOMALY": 250.2439, "EPHEMERIS_TYPE": 0, "CLASSIFICATION_TYPE": "U", "NORAD_CAT_ID": 30390, "ELEMENT_SET_NO": 999, "REV_AT_EPOCH": 97333, "BSTAR": 0.0024037042, "MEAN_MOTION_DOT": 6.279e-05, "MEAN_MOTION_DDOT": 0}, "tle": {"line1": "1 30390U 99025ADD 25343.18304293  .00006279  00000+0  24037-2 0  9998", "line2": "2 30390  98.8221  66.3432 0068203 174.6370 250.2439 14.29676745973339"}}, "geometry": {"type": "Point", "coordinates": [-79.7508865660208, 74.01730275034217]}}, {"type": "Feature", "properties": {"norad_id": 30391, "name": "FENGYUN 1C DEB", "group": "fengyun-1c-debris", "lat": 40.73183058410985, "lon": -142.07329032679263, "alt_km": 868.222806968125, "timestamp": "2025-12-10T05:46:14.098177+00:00", "meta": {"OBJECT_NAME": "FENGYUN 1C DEB", "OBJECT_ID": "1999-025ADE", "EPOCH": "2025-12-09T02:14:27.186144", "MEAN_MOTION": 14.16210933, "ECCENTRICITY": 0.00712897, "INCLINATION": 98.7805, "RA_OF_ASC_NODE": 29.1476, "ARG_OF_PERICENTER": 272.545, "MEAN_ANOMALY": 141.7591, "EPHEMERIS_TYPE": 0, "CLASSIFICATION_TYPE": "U", "NORAD_CAT_ID": 30391, "ELEMENT_SET_NO": 999, "REV_AT_EPOCH": 96827, "BSTAR": 0.0013999589, "MEAN_MOTION_DOT": 2.798e-05, "MEAN_MOTION_DDOT": 0}, "tle": {"line1": "1 30391U 99025ADE 25343.09337021  .00002798  00000+0  14000-2 0  9995", "line2": "2 30391  98.7805  29.1476 0071289 272.5450 141.7591 14.16210933968276"}}, "geometry": {"type": "Point", "coordinates": [-142.07329032679263, 40.73183058410985]}}, {"type": "Feature", "properties": {"norad_id": 30392, "name": "FENGYUN 1C DEB", "group": "fengyun-1c-debris", "lat": -27.225222761918527, "lon": 178.32926249103969, "alt_km": 993.7536078284074, "timestamp": "2025-12-10T05:46:14.098187+00:00", "meta": {"OBJECT_NAME": "FENGYUN 1C DEB", "OBJECT_ID": "1999-025ADF", "EPOCH": "2025-12-09T19:23:53.738304", "MEAN_MOTION": 14.07441737, "ECCENTRICITY": 0.0181103, "INCLINATION": 98.7857, "RA_OF_ASC_NODE": 2.4724, "ARG_OF_PERICENTER": 5.1342, "MEAN_ANOMALY": 174.6241, "EPHEMERIS_TYPE": 0, "CLASSIFICATION_TYPE": "U", "NORAD_CAT_ID": 30392, "ELEMENT_SET_NO": 999, "REV_AT_EPOCH": 96629, "BSTAR": 0.0011986, "MEAN_MOTION_DOT": 2.3e-05, "MEAN_MOTION_DDOT": 0}, "tle": {"line1": "1 30392U 99025ADF 25343.80826086  .00002300  00000+0  11986-2 0  9998", "line2": "2 30392  98.7857   2.4724 0181103   5.1342 174.6241 14.07441737966296"}}, "geometry": {"type": "Point", "coordinates": [178.32926249103969, -27.225222761918527]}}, {"type": "Feature", "properties": {"norad_id": 30393, "name": "FENGYUN 1C DEB", "group": "fengyun-1c-debris", "lat": 17.62242074513456, "lon": 39.08742300566391, "alt_km": 915.4938052533707, "timestamp": "2025-12-10T05:46:14.098197+00:00", "meta": {"OBJECT_NAME": "FENGYUN 1C DEB", "OBJECT_ID": "1999-025ADG", "EPOCH": "2025-12-09T04:17:20.323680", "MEAN_MOTION": 13.98979479, "ECCENTRICITY": 0.00694816, "INCLINATION": 99.1646, "RA_OF_ASC_NODE": 40.9653, "ARG_OF_PERICENTER": 269.8457, "MEAN_ANOMALY": 163.0499, "EPHEMERIS_TYPE": 0, "CLASSIFICATION_TYPE": "U", "NORAD_CAT_ID": 30393, "ELEMENT_SET_NO": 999, "REV_AT_EPOCH": 96280, "BSTAR": 0.00041926123, "MEAN_MOTION_DOT": 5.73e-06, "MEAN_MOTION_DDOT": 0}, "tle": {"line1": "1 30393U 99025ADG 25343.17870745  .00000573  00000+0  41926-3 0  9998", "line2": "2 30393  99.1646  40.9653 0069481 269.8457 163.0499 13.98979479962804"}}, "geometry": {"type": "Point", "coordinates": [39.08742300566391, 17.62242074513456]}}, {"type": "Feature", "properties": {"norad_id": 30394, "name": "FENGYUN 1C DEB", "group": "fengyun-1c-debris", "lat": 14.215154170105613, "lon": 10.030566478241171, "alt_km": 912.7639790007843, "timestamp": "2025-12-10T05:46:14.098206+00:00", "meta": {"OBJECT_NAME": "FENGYUN 1C DEB", "OBJECT_ID": "1999-025ADH", "EPOCH": "2025-12-09T20:11:40.351200", "MEAN_MOTION": 13.95784068, "ECCENTRICITY": 0.0089926, "INCLINATION": 99.4355, "RA_OF_ASC_NODE": 12.0364, "ARG_OF_PERICENTER": 109.1759, "MEAN_ANOMALY": 62.5436, "EPHEMERIS_TYPE": 0, "CLASSIFICATION_TYPE": "U", "NORAD_CAT_ID": 30394, "ELEMENT_SET_NO": 999, "REV_AT_EPOCH": 96063, "BSTAR": 0.0005579, "MEAN_MOTION_DOT": 7.42e-06, "MEAN_MOTION_DDOT": 0}, "tle": {"line1": "1 30394U 99025ADH 25343.84143925  .00000742  00000+0  55790-3 0  9998", "line2": "2 30394  99.4355  12.0364 0089926 109.1759  62.5436 13.95784068960639"}}, "geometry": {"type": "Point", "coordinates": [10.030566478241171, 14.215154170105613]}}, {"type": "Feature", "properties": {"norad_id": 30395, "name": "FENGYUN 1C DEB", "group": "fengyun-1c-debris", "lat": 20.104096759159198, "lon": -176.8269287932255, "alt_km": 973.6031051931623, "timestamp": "2025-12-10T05:46:14.098216+00:00", "meta": {"OBJECT_NAME": "FENGYUN 1C DEB", "OBJECT_ID": "1999-025ADJ", "EPOCH": "2025-12-09T19:34:00.230880", "MEAN_MOTION": 13.96686165, "ECCENTRICITY": 0.0160616, "INCLINATION": 98.9309, "RA_OF_ASC_NODE": 359.4606, "ARG_OF_PERICENTER": 34.2078, "MEAN_ANOMALY": 147.2689, "EPHEMERIS_TYPE": 0, "CLASSIFICATION_TYPE": "U", "NORAD_CAT_ID": 30395, "ELEMENT_SET_NO": 999, "REV_AT_EPOCH": 95982, "BSTAR": 0.00075244, "MEAN_MOTION_DOT": 1.121e-05, "MEAN_MOTION_DDOT": 0}, "tle": {"line1": "1 30395U 99025ADJ 25343.81528045  .00001121  00000+0  75244-3 0  9994", "line2": "2 30395  98.9309 359.4606 0160616  34.2078 147.2689 13.96686165959828"}}, "geometry": {"type": "Point", "coordinates": [-176.8269287932255, 20.104096759159198]}}]}